STARLINK-1007           
1 44713U 19074A   24086.43055848  .00002479  00000+0  18530-3 0  9998
2 44713  53.0536 148.5616 0001580  88.5791 271.5379 15.06385544241413
STARLINK-1008           
1 44714U 19074B   24086.54207001 -.00002735  00000+0 -16485-3 0  9995
2 44714  53.0539 148.0643 0001652 100.5348 259.5827 15.06378313241437
STARLINK-1009           
1 44715U 19074C   24086.19927328 -.00001082  00000+0 -53784-4 0  9996
2 44715  53.0530 149.5965 0002020  82.9493 277.1725 15.06378246241377
STARLINK-1010           
1 44716U 19074D   24086.54945208  .00008417  00000+0  58334-3 0  9995
2 44716  53.0524 148.0301 0001807  86.0984 274.0211 15.06396063241419
STARLINK-1011           
1 44717U 19074E   24086.21585925  .00002205  00000+0  16696-3 0  9990
2 44717  53.0526 169.5302 0001554  90.3065 269.8102 15.06375064241103
STARLINK-1012           
1 44718U 19074F   24086.18820996 -.00002474  00000+0 -14729-3 0  9992
2 44718  53.0515 149.6488 0001164  88.1320 271.9802 15.06387172241375
STARLINK-1013           
1 44719U 19074G   24086.19558952 -.00002893  00000+0 -17550-3 0  9994
2 44719  53.0532 149.6149 0001334 102.1519 257.9620 15.06380942241375
STARLINK-1014           
1 44720U 19074H   24086.18699041  .00025185  00000+0  16475-2 0  9991
2 44720  53.0541 149.3738 0002638  69.2771 290.8501 15.07640487241388
STARLINK-1015           
1 44721U 19074J   24086.53470339 -.00003289  00000+0 -20213-3 0  9997
2 44721  53.0534 148.0959 0001603 102.3520 257.7648 15.06371330241420
STARLINK-1017           
1 44723U 19074L   24086.48679297 -.00002880  00000+0 -17463-3 0  9996
2 44723  53.0544 148.3127 0001536 102.8636 257.2524 15.06374373241429
STARLINK-1019           
1 44724U 19074M   24086.44992023  .00000974  00000+0  84312-4 0  9996
2 44724  53.0529 148.4734 0001963  94.2179 265.9035 15.06382345241418
STARLINK-1020           
1 44725U 19074N   24086.52180910 -.00001959  00000+0 -11274-3 0  9992
2 44725  53.0531 168.1561 0001289 103.2536 256.8597 15.06370504241144
STARLINK-1021           
1 44726U 19074P   24086.18083991 -.00003934  00000+0 -24541-3 0  9992
2 44726  53.0538 149.6814 0001563 100.1034 260.0131 15.06385403241371
STARLINK-1024           
1 44729U 19074S   24086.00001157  .00686960  22450-3  13163-2 0  9998
2 44729  53.0072 356.6156 0001606  82.5505 288.2283 15.99994901  6022
STARLINK-1027           
1 44732U 19074V   24086.51074374 -.00007543  00000+0 -48850-3 0  9990
2 44732  53.0529 168.2116 0001439 101.1214 258.9937 15.06366209241141
STARLINK-1028           
1 44733U 19074W   24086.44256011  .00031508  00000+0  21256-2 0  9999
2 44733  53.0530 148.5104 0001207 101.3365 258.7759 15.06384915241418
STARLINK-1029           
1 44734U 19074X   24086.19188856 -.00002626  00000+0 -15756-3 0  9993
2 44734  53.0556  69.6291 0001761  86.6871 273.4319 15.06380475242479
STARLINK-1030           
1 44735U 19074Y   24086.51811732 -.00006742  00000+0 -43462-3 0  9994
2 44735  53.0535 168.1718 0001548 107.2232 252.8927 15.06361739241141
STARLINK-1031           
1 44736U 19074Z   24086.53287205 -.00008902  00000+0 -58026-3 0  9991
2 44736  53.0532 168.1001 0001409  93.7638 266.3512 15.06348274241159
STARLINK-1032           
1 44737U 19074AA  24086.54390810  .00015800  00000+0  10788-2 0  9995
2 44737  53.0534 168.0539 0001442  59.5032 300.6099 15.06346454241152
STARLINK-1035           
1 44740U 19074AD  24086.54023047  .00007543  00000+0  52497-3 0  9993
2 44740  53.0547 168.0817 0001510  95.4680 264.6481 15.06382780241159
STARLINK-1036           
1 44741U 19074AE  24086.21954898 -.00004234  00000+0 -26573-3 0  9997
2 44741  53.0528 169.5096 0001618  96.7059 263.4114 15.06372729241104
STARLINK-1038           
1 44743U 19074AG  24085.60581391 -.00012083  00000+0 -79417-3 0  9991
2 44743  53.0540 192.2601 0001583  82.3475 277.7693 15.06376392240658
STARLINK-1039           
1 44744U 19074AH  24086.54575829 -.00001659  00000+0 -92534-4 0  9998
2 44744  53.0543 188.0433 0001692 106.7742 253.3433 15.06374442240877
STARLINK-1041           
1 44746U 19074AK  24086.53101917  .00020477  00000+0  13901-2 0  9998
2 44746  53.0539 188.1128 0001468  99.7504 260.3651 15.06386046240877
STARLINK-1042           
1 44747U 19074AL  24086.51650296  .00046245  00000+0  27385-2 0  9998
2 44747  53.0547 187.0236 0001640 332.4084  27.6820 15.10983817240895
STARLINK-1043           
1 44748U 19074AM  24086.52363567 -.00005914  00000+0 -37868-3 0  9990
2 44748  53.0538 188.1402 0001451  92.5259 267.5896 15.06375527240875
STARLINK-1046           
1 44751U 19074AQ  24086.53838809 -.00001646  00000+0 -91659-4 0  9998
2 44751  53.0539 188.0821 0001556  94.6068 265.5098 15.06386893240871
STARLINK-1047           
1 44752U 19074AR  24086.49231277 -.00001728  00000+0 -97145-4 0  9997
2 44752  53.0546 168.2784 0001721 114.4446 245.6722 15.06389127241140
STARLINK-1048           
1 44753U 19074AS  24086.43149137 -.00004227  00000+0 -26527-3 0  9997
2 44753  53.0517 148.5575 0001190 109.8986 250.2131 15.06374166241418
STARLINK-1052           
1 44757U 19074AW  24086.20939731  .00020031  00000+0  94778-3 0  9995
2 44757  53.0545 160.9235 0004621 329.8420  30.2308 15.19363769241225
STARLINK-1053           
1 44758U 19074AX  24086.51996842  .00023062  00000+0  15625-2 0  9996
2 44758  53.0538 188.2486 0001356 107.4552 252.6585 15.06390233240876
STARLINK-1054           
1 44759U 19074AY  24086.56786830  .00003240  00000+0  23638-3 0  9996
2 44759  53.0536 187.9392 0001334  92.5014 267.6128 15.06388623240880
STARLINK-1055           
1 44760U 19074AZ  24086.18868335  .00024679  00000+0  94503-3 0  9995
2 44760  53.0150 152.5322 0004565  14.1991 345.9134 15.26421457241353
STARLINK-1056           
1 44761U 19074BA  24086.56419248 -.00002311  00000+0 -13639-3 0  9995
2 44761  53.0541 187.9629 0001415 105.6082 254.5063 15.06373156240881
STARLINK-1057           
1 44762U 19074BB  24086.49967962 -.00005362  00000+0 -34160-3 0  9990
2 44762  53.0529 168.2524 0001440 103.9748 256.1401 15.06373178241140
STARLINK-1058           
1 44763U 19074BC  24086.55317192 -.00006066  00000+0 -38900-3 0  9990
2 44763  53.0536 188.3539 0001053 117.9859 242.1236 15.06373252240879
STARLINK-1059           
1 44764U 19074BD  24085.81367147  .00028994  00000+0  94966-3 0  9990
2 44764  53.0792 116.0780 0004697 324.6019  35.4669 15.31446304241840
STARLINK-1060           
1 44765U 19074BE  24086.51442124  .00000962  00000+0  83486-4 0  9999
2 44765  53.0533 168.1876 0001451  96.8739 263.2415 15.06390439241142
STARLINK-1061           
1 44766U 19074BF  24086.57894460 -.00000673  00000+0 -26336-4 0  9992
2 44766  53.0544 187.8975 0001357  87.3185 272.7959 15.06368405240884
STARLINK-1062           
1 44767U 19074BG  24086.57061046  .00001316  00000+0  10727-3 0  9998
2 44767  53.0535 187.9245 0001428  93.2816 266.8337 15.06386345240889
STARLINK-1063           
1 44768U 19074BH  24086.52732211 -.00004316  00000+0 -27118-3 0  9990
2 44768  53.0536 188.1252 0001958 114.9785 245.1408 15.06376771240876
STARLINK-1067           
1 44771U 19074BL  24086.51626588  .00000654  00000+0  62829-4 0  9990
2 44771  53.0550 188.1808 0001944 126.0555 234.0614 15.06386439240875
STARLINK-1068           
1 44772U 19074BM  24086.50705745 -.00006699  00000+0 -43169-3 0  9995
2 44772  53.0539 168.2209 0001446 102.4472 257.6678 15.06361290241140
STARLINK-1073           
1 44914U 20001A   24085.92650008  .00017037  00000+0  11604-2 0  9995
2 44914  53.0535 310.8226 0001445  90.3391 269.7764 15.06382910232267
STARLINK-1084           
1 44915U 20001B   24085.88965009  .00021188  00000+0  14367-2 0  9992
2 44915  53.0536 310.9893 0001338  76.0361 284.0777 15.06408537232267
STARLINK-1098           
1 44917U 20001D   24085.89332367  .00020701  00000+0  14032-2 0  9999
2 44917  53.0535 310.9721 0001321  78.2254 281.8883 15.06436205232261
STARLINK-1099           
1 44918U 20001E   24086.49425704  .00060165  00000+0  81469-3 0  9992
2 44918  53.0524 264.3764 0002774 192.2034 167.8911 15.57142992233714
STARLINK-1102           
1 44920U 20001G   24086.49655972  .00071993  00000+0  24749-2 0  9995
2 44920  53.0503 261.9168 0002468  97.8084 262.3195 15.29459949233010
STARLINK-1103           
1 44921U 20001H   24086.33470891  .00009002  00000+0  62248-3 0  9993
2 44921  53.0530 308.9493 0001149  80.8038 279.3081 15.06400053232300
STARLINK-1104           
1 44922U 20001J   24085.90809240  .00021293  00000+0  14439-2 0  9994
2 44922  53.0544 310.9037 0001528  81.1866 278.9296 15.06403428232264
STARLINK-1106           
1 44923U 20001K   24085.80853262  .00029572  00000+0  11922-2 0  9999
2 44923  53.0184 278.4098 0001704 286.5033  73.5776 15.24609066232711
STARLINK-1111           
1 44924U 20001L   24086.00001157  .00926137  00000+0  33455-1 0  9998
2 44924  53.0554 309.4700 0001245  69.0231 169.0960 15.25444988  5672
STARLINK-1112           
1 44925U 20001M   24086.33563085  .00012384  00000+0  84849-3 0  9993
2 44925  53.0539 308.9849 0001123  84.1465 275.9652 15.06412599232327
STARLINK-1113           
1 44926U 20001N   24086.25002315  .00882538  00000+0  29311-1 0  9996
2 44926  53.0564 308.2324 0001170  71.8322 116.5746 15.28354964233010
STARLINK-1114           
1 44927U 20001P   24086.34672111  .00021862  00000+0  14814-2 0  9992
2 44927  53.0529 308.9370 0001319  77.2129 282.9008 15.06415794232338
STARLINK-1119           
1 44928U 20001Q   24086.58334491  .00134409  00000+0  78787-3 0  9997
2 44928  53.0459 255.3256 0003868 291.8588 253.2535 15.77408573233100
STARLINK-1123           
1 44930U 20001S   24085.89700838  .00004294  00000+0  30696-3 0  9990
2 44930  53.0537 310.9541 0001671 101.2616 258.8561 15.06407682232269
STARLINK-1128           
1 44931U 20001T   24086.58334491  .00139685  00000+0  45522-2 0  9992
2 44931  53.0480 271.6651 0008863 221.2701 348.4092 15.30788884233629
STARLINK-1130 (DARKSAT) 
